NORAD_CAT_ID,OBJECT_NAME,OBJECT_TYPE,EPOCH,MEAN_MOTION,ECCENTRICITY,INCLINATION,RA_OF_ASC_NODE,ARG_OF_PERICENTER,MEAN_ANOMALY,BSTAR,MEAN_MOTION_DOT,MEAN_MOTION_DDOT,TLE_LINE0,TLE_LINE1,TLE_LINE2,SEMIMAJOR_AXIS,PERIOD,APOGEE,PERIGEE,DECAYED
53159.0,STARLINK-4111,PAYLOAD,2024-02-21 20:26:44,15.08839449,0.0001316,53.2166,276.8063,99.7748,260.3392,0.00010396,1.367e-05,0.0,0 STARLINK-4111,1 53159U 22083AD  24052.85190205  .00001367  00000-0  10396-3 0  9990,2 53159  53.2166 276.8063 0001316  99.7748 260.3392 15.08839449 89244,6917.882,95.438,540.657,538.837,0.0
53159.0,STARLINK-4111,PAYLOAD,2024-02-21 22:02:07,15.08840495,0.0001318,53.2166,276.5105,100.7763,259.3378,0.00011627,1.563e-05,0.0,0 STARLINK-4111,1 53159U 22083AD  24052.91814111  .00001563  00000-0  11627-3 0  9992,2 53159  53.2166 276.5105 0001318 100.7763 259.3378 15.08840495 88626,6917.879,95.438,540.656,538.832,0.0
53159.0,STARLINK-4111,PAYLOAD,2024-02-22 07:34:26,15.08840207,0.0001308,53.2167,274.7269,99.6264,260.4876,9.1215e-05,1.164e-05,0.0,0 STARLINK-4111,1 53159U 22083AD  24053.31558222  .00001164  00000-0  91215-4 0  9994,2 53159  53.2167 274.7269 0001308  99.6264 260.4876 15.08840207 88682,6917.88,95.438,540.65,538.84,0.0
53159.0,STARLINK-4111,PAYLOAD,2024-02-22 21:52:54,15.0884046,0.0001374,53.2173,272.0514,92.1208,267.9941,5.264e-05,5.5e-06,0.0,0 STARLINK-4111,1 53159U 22083AD  24053.91174404  .00000550  00000-0  52640-4 0  9993,2 53159  53.2173 272.0514 0001374  92.1208 267.9941 15.08840460 88778,6917.879,95.438,540.694,538.793,0.0
53159.0,STARLINK-4111,PAYLOAD,2024-02-23 21:43:41,15.08839534,0.0001357,53.217,267.5904,87.2248,272.8899,2.4076e-05,9.5e-07,0.0,0 STARLINK-4111,1 53159U 22083AD  24054.90534638  .00000095  00000-0  24076-4 0  9998,2 53159  53.2170 267.5904 0001357  87.2248 272.8899 15.08839534 88921,6917.882,95.438,540.686,538.808,0.0
53159.0,STARLINK-4111,PAYLOAD,2024-02-24 07:16:00,15.08841939,0.0001372,53.217,265.806,84.5827,275.5321,3.8927e-05,3.32e-06,0.0,0 STARLINK-4111,1 53159U 22083AD  24055.30278493  .00000332  00000-0  38927-4 0  9991,2 53159  53.2170 265.8060 0001372  84.5827 275.5321 15.08841939 89614,6917.874,95.437,540.689,538.79,0.0
53159.0,STARLINK-4111,PAYLOAD,2024-02-24 13:37:33,15.0884007,0.0001332,53.2164,264.6167,84.6255,275.489,7.0506e-05,8.34e-06,0.0,0 STARLINK-4111,1 53159U 22083AD  24055.56774529  .00000834  00000-0  70506-4 0  9996,2 53159  53.2164 264.6167 0001332  84.6255 275.4890 15.08840070 89024,6917.88,95.438,540.667,538.824,0.0
53159.0,STARLINK-4111,PAYLOAD,2024-02-24 19:59:05,15.08841118,0.0001316,53.2163,263.4273,84.483,275.6313,7.5276e-05,9.1e-06,0.0,0 STARLINK-4111,1 53159U 22083AD  24055.83270450  .00000910  00000-0  75276-4 0  9994,2 53159  53.2163 263.4273 0001316  84.4830 275.6313 15.08841118 89067,6917.877,95.437,540.652,538.832,0.0
53159.0,STARLINK-4111,PAYLOAD,2024-02-25 07:06:46,15.08849711,0.0001923,53.2165,261.3467,77.1241,282.9966,0.00014602,2.037e-05,0.0,0 STARLINK-4111,1 53159U 22083AD  24056.29637623  .00002037  00000-0  14602-3 0  9991,2 53159  53.2165 261.3467 0001923  77.1241 282.9966 15.08849711 89769,6917.851,95.437,541.046,538.385,0.0
53159.0,STARLINK-4111,PAYLOAD,2024-02-25 13:28:18,15.0886179,0.0001142,53.2202,260.1532,94.1159,265.9964,0.00021321,3.109e-05,0.0,0 STARLINK-4111,1 53159U 22083AD  24056.56132172  .00003109  00000-0  21321-3 0  9997,2 53159  53.2202 260.1532 0001142  94.1159 265.9964 15.08861790 89176,6917.814,95.436,540.469,538.889,0.0
53159.0,STARLINK-4111,PAYLOAD,2024-02-25 19:49:52,15.08842612,0.0001393,53.2159,258.9633,53.3021,306.8099,4.9985e-05,5.08e-06,0.0,0 STARLINK-4111,1 53159U 22083AD  24056.82629852  .00000508  00000-0  49985-4 0  9999,2 53159  53.2159 258.9633 0001393  53.3021 306.8099 15.08842612 89847,6917.872,95.437,540.701,538.774,0.0
53159.0,STARLINK-4111,PAYLOAD,2024-02-26 13:19:07,15.08832007,0.0001772,53.2153,255.6961,78.3585,281.7606,-0.0001132,-2.089e-05,0.0,0 STARLINK-4111,1 53159U 22083AD  24057.55495283 -.00002089  00000-0 -11320-3 0  9998,2 53159  53.2153 255.6961 0001772  78.3585 281.7606 15.08832007 89327,6917.905,95.438,540.996,538.544,0.0
53159.0,STARLINK-4111,PAYLOAD,2024-02-26 19:40:40,15.08830702,0.000171,53.2164,254.5062,91.4258,268.693,-0.00012777,-2.32e-05,0.0,0 STARLINK-4111,1 53159U 22083AD  24057.81991459 -.00002320  00000-0 -12777-3 0  9998,2 53159  53.2164 254.5062 0001710  91.4258 268.6930 15.08830702 89991,6917.909,95.438,540.957,538.591,0.0
53159.0,STARLINK-4111,PAYLOAD,2024-02-27 13:09:53,15.0889665,0.0001177,53.2158,251.234,74.8684,285.2439,-0.00087551,-0.00014216,0.0,0 STARLINK-4111,1 53159U 22083AD  24058.54853339 -.00014216  00000-0 -87551-3 0  9992,2 53159  53.2158 251.2340 0001177  74.8684 285.2439 15.08896650 89478,6917.707,95.434,540.386,538.758,0.0
53159.0,STARLINK-4111,PAYLOAD,2024-02-27 19:31:25,15.0889656,0.0001505,53.2155,250.0441,77.4017,282.7143,-0.00082041,-0.00013341,0.0,0 STARLINK-4111,1 53159U 22083AD  24058.81348436 -.00013341  00000-0 -82041-3 0  9996,2 53159  53.2155 250.0441 0001505  77.4017 282.7143 15.08896560 90148,6917.708,95.434,540.614,538.531,0.0
53159.0,STARLINK-4111,PAYLOAD,2024-02-27 22:42:13,15.08834262,0.0001264,53.2155,249.4488,90.9085,269.2051,0.00015109,2.117e-05,0.0,0 STARLINK-4111,1 53159U 22083AD  24058.94598556  .00002117  00000-0  15109-3 0  9998,2 53159  53.2155 249.4488 0001264  90.9085 269.2051 15.08834262 90169,6917.898,95.438,540.637,538.889,0.0
53159.0,STARLINK-4111,PAYLOAD,2024-02-28 13:00:41,15.08834495,0.0001195,53.2155,246.771,86.9967,273.1162,0.00016978,2.415e-05,0.0,0 STARLINK-4111,1 53159U 22083AD  24059.54214886  .00002415  00000-0  16978-3 0  9992,2 53159  53.2155 246.7710 0001195  86.9967 273.1162 15.08834495 89628,6917.897,95.438,540.589,538.936,0.0
53159.0,STARLINK-4111,PAYLOAD,2024-02-28 19:22:13,15.08840444,0.0001206,53.216,245.5844,92.3736,267.7395,0.00023918,3.521e-05,0.0,0 STARLINK-4111,1 53159U 22083AD  24059.80710590  .00003521  00000-0  23918-3 0  9995,2 53159  53.2160 245.5844 0001206  92.3736 267.7395 15.08840444 89669,6917.879,95.438,540.578,538.91,0.0
53159.0,STARLINK-4111,PAYLOAD,2024-02-29 04:54:33,15.0883848,0.0001142,53.2147,243.7991,84.1213,275.9909,0.0001678,2.384e-05,0.0,0 STARLINK-4111,1 53159U 22083AD  24060.20455020  .00002384  00000-0  16780-3 0  9990,2 53159  53.2147 243.7991 0001142  84.1213 275.9909 15.08838480 90352,6917.885,95.438,540.54,538.96,0.0
53159.0,STARLINK-4111,PAYLOAD,2024-02-29 19:13:02,15.08830199,0.0001313,53.2168,241.1258,96.9684,263.1458,-1.167e-05,-4.74e-06,0.0,0 STARLINK-4111,1 53159U 22083AD  24060.80072175 -.00000474  00000-0 -11670-4 0  9996,2 53159  53.2168 241.1258 0001313  96.9684 263.1458 15.08830199 90443,6917.91,95.438,540.684,538.867,0.0
53159.0,STARLINK-4111,PAYLOAD,2024-03-01 11:06:53,15.0884036,0.0001174,53.2167,238.1487,80.0817,280.0307,8.0624e-05,9.96e-06,0.0,0 STARLINK-4111,1 53159U 22083AD  24061.46311473  .00000996  00000-0  80624-4 0  9998,2 53159  53.2167 238.1487 0001174  80.0817 280.0307 15.08840360 90542,6917.879,95.438,540.556,538.932,0.0
53159.0,STARLINK-4111,PAYLOAD,2024-03-01 19:03:48,15.08850352,0.0001266,53.2169,236.6636,87.1845,272.9292,8.8407e-05,1.12e-05,0.0,0 STARLINK-4111,1 53159U 22083AD  24061.79430700  .00001120  00000-0  88407-4 0  9996,2 53159  53.2169 236.6636 0001266  87.1845 272.9292 15.08850352 90594,6917.849,95.437,540.59,538.838,0.0
53159.0,STARLINK-4111,PAYLOAD,2024-03-02 17:19:12,15.08838839,0.0001162,53.2157,232.4989,74.3635,285.7485,0.0001233,1.675e-05,0.0,0 STARLINK-4111,1 53159U 22083AD  24062.72167535  .00001675  00000-0  12330-3 0  9999,2 53159  53.2157 232.4989 0001162  74.3635 285.7485 15.08838839 90734,6917.884,95.438,540.553,538.945,0.0
53159.0,STARLINK-4111,PAYLOAD,2024-03-03 10:48:26,15.08847341,0.0001309,53.2164,229.2293,82.1948,277.9193,4.8607e-05,4.86e-06,0.0,0 STARLINK-4111,1 53159U 22083AD  24063.45031204  .00000486  00000-0  48607-4 0  9999,2 53159  53.2164 229.2293 0001309  82.1948 277.9193 15.08847341 90211,6917.858,95.437,540.628,538.817,0.0
53159.0,STARLINK-4111,PAYLOAD,2024-03-03 17:09:59,15.08849442,0.0001168,53.2166,228.0405,76.756,283.3562,9.0383e-05,1.151e-05,0.0,0 STARLINK-4111,1 53159U 22083AD  24063.71526860  .00001151  00000-0  90383-4 0  9993,2 53159  53.2166 228.0405 0001168  76.7560 283.3562 15.08849442 90256,6917.852,95.437,540.525,538.909,0.0
53159.0,STARLINK-4111,PAYLOAD,2024-03-04 04:17:40,15.08851957,0.0001217,53.2164,225.9577,85.3437,274.7694,0.00017253,2.46e-05,0.0,0 STARLINK-4111,1 53159U 22083AD  24064.17894305  .00002460  00000-0  17253-3 0  9994,2 53159  53.2164 225.9577 0001217  85.3437 274.7694 15.08851957 90326,6917.844,95.437,540.551,538.867,0.0
53159.0,STARLINK-4111,PAYLOAD,2024-03-04 17:00:45,15.08852323,0.0001202,53.2146,223.5776,89.8797,270.2333,0.00021447,3.128e-05,0.0,0 STARLINK-4111,1 53159U 22083AD  24064.70886212  .00003128  00000-0  21447-3 0  9993,2 53159  53.2146 223.5776 0001202  89.8797 270.2333 15.08852323 90401,6917.843,95.437,540.539,538.876,0.0
53159.0,STARLINK-4111,PAYLOAD,2024-03-05 13:40:47,15.08837785,0.0001175,53.2146,219.7117,81.4846,278.6279,-1.261e-05,-4.88e-06,0.0,0 STARLINK-4111,1 53159U 22083AD  24065.56999019 -.00000488  00000-0 -12610-4 0  9999,2 53159  53.2146 219.7117 0001175  81.4846 278.6279 15.08837785 90539,6917.887,95.438,540.565,538.939,0.0
53159.0,STARLINK-4111,PAYLOAD,2024-03-05 16:51:33,15.08835725,0.0001293,53.2158,219.1171,96.0686,264.0453,-9.7209e-05,-1.834e-05,0.0,0 STARLINK-4111,1 53159U 22083AD  24065.70247095 -.00001834  00000-0 -97209-4 0  9998,2 53159  53.2158 219.1171 0001293  96.0686 264.0453 15.08835725 91188,6917.893,95.438,540.653,538.864,0.0
53159.0,STARLINK-4111,PAYLOAD,2024-03-06 10:20:47,15.08848288,0.0001296,53.2159,215.8452,98.0149,262.099,9.5462e-05,1.232e-05,0.0,0 STARLINK-4111,1 53159U 22083AD  24066.43110080  .00001232  00000-0  95462-4 0  9991,2 53159  53.2159 215.8452 0001296  98.0149 262.0990 15.08848288 91297,6917.855,95.437,540.617,538.824,0.0
